1 33886U 97051BF  26115.18617022  .00000409  00000+0  13341-3 0  9999
2 33886  86.3877  11.0524 0014350 161.3833   0.6702 14.36218160899676
